[{"OBJECT_NAME":"STARLINK-4382","OBJECT_ID":"2022-084F","EPOCH":"2026-03-09T18:01:38.527104","MEAN_MOTION":15.05644356,"ECCENTRICITY":0.00013533,"INCLINATION":97.6027,"RA_OF_ASC_NODE":131.2379,"ARG_OF_PERICENTER":89.7849,"MEAN_ANOMALY":270.3533,"EPHEMERIS_TYPE":0,"CLASSIFICATION_TYPE":"U","NORAD_CAT_ID":53194,"ELEMENT_SET_NO":999,"REV_AT_EPOCH":19938,"BSTAR":4.184132e-6,"MEAN_MOTION_DOT":0,"MEAN_MOTION_DDOT":0},{"OBJECT_NAME":"DELTA 1 DEB","OBJECT_ID":"1972-058EG","EPOCH":"2026-03-09T15:29:57.375744","MEAN_MOTION":14.93143945,"ECCENTRICITY":0.0071537,"INCLINATION":98.4418,"RA_OF_ASC_NODE":299.7647,"ARG_OF_PERICENTER":185.1751,"MEAN_ANOMALY":174.8735,"EPHEMERIS_TYPE":0,"CLASSIFICATION_TYPE":"U","NORAD_CAT_ID":8314,"ELEMENT_SET_NO":999,"REV_AT_EPOCH":83297,"BSTAR":0.00043799,"MEAN_MOTION_DOT":4.734e-5,"MEAN_MOTION_DDOT":0}]
